*******************************************************************************
 Revised: September 28, 2017           Jupiter                              599
 
 PHYSICAL DATA (updated 2018-Aug-15):
  Mass x10^24 (kg)      = 1898.13+-.19    Density (g/cm^3)       =   1.326
  Equat. radius (1 bar) = 71492+-4 km     Polar radius (km)      =  66854+-10
  Vol. Mean Radius (km) = 69911+-6        Flattening             =   0.06487
  Geometric Albedo      = 0.52            Rocky core mass (Mc/M) =  0.0261
  Sid. rot. period (III)= 9h 55m 29.71 s  Sid. rot. rate (rad/s) =  0.00017585 
  Mean solar day, hrs   = ~9.9259         
  GM (km^3/s^2)         = 126686534.911   GM 1-sigma (km^3/s^2)  =  +-1.5
  Equ. grav, ge (m/s^2) = 24.79           Pol. grav, gp (m/s^2)  =  28.34
  Vis. magnitude V(1,0) = -9.40
  Vis. mag. (opposition)= -2.70           Obliquity to orbit     =  3.13 deg
  Sidereal orbit period = 11.861982204 y  Sidereal orbit period  = 4332.589 d
  Mean daily motion     = 0.0831294 deg/d Mean orbit speed, km/s = 13.0697
  Atmos. temp. (1 bar)  = 165+-5 K        Escape speed, km/s    =  59.5           
  A_roche(ice)/Rp       =  2.76           Hill's sphere rad. Rp  = 740
                                 Perihelion   Aphelion     Mean
  Solar Constant (W/m^2)         56           46           51
  Maximum Planetary IR (W/m^2)   13.7         13.4         13.6
  Minimum Planetary IR (W/m^2)   13.7         13.4         13.6
*******************************************************************************
 
 
*******************************************************************************
Ephemeris / WWW_USER Fri Nov  9 14:54:11 2018 Pasadena, USA      / Horizons    
*******************************************************************************
Target body name: Jupiter (599)                   {source: jup341}
Center body name: Earth (399)                     {source: DE431mx}
Center-site name: GEOCENTRIC
*******************************************************************************
Start time      : A.D. 1999-Nov-25 00:00:00.0000 UT      
Stop  time      : A.D. 1999-Nov-27 00:00:00.0000 UT      
Step-size       : 5 minutes
*******************************************************************************
Target pole/equ : IAU_JUPITER                     {West-longitude positive}
Target radii    : 71492.0 x 71492.0 x 66854.0 km  {Equator, meridian, pole}    
Center geodetic : 0.00000000,0.00000000,0.0000000 {E-lon(deg),Lat(deg),Alt(km)}
Center cylindric: 0.00000000,0.00000000,0.0000000 {E-lon(deg),Dxy(km),Dz(km)}
Center pole/equ : High-precision EOP model        {East-longitude positive}
Center radii    : 6378.1 x 6378.1 x 6356.8 km     {Equator, meridian, pole}    
Target primary  : Sun
Vis. interferer : MOON (R_eq= 1737.400) km        {source: DE431mx}
Rel. light bend : Sun, EARTH                      {source: DE431mx}
Rel. lght bnd GM: 1.3271E+11, 3.9860E+05 km^3/s^2                              
Atmos refraction: NO (AIRLESS)
RA format       : DEG
Time format     : CAL 
EOP file        : eop.181108.p190130                                           
EOP coverage    : DATA-BASED 1962-JAN-20 TO 2018-NOV-08. PREDICTS-> 2019-JAN-29
Units conversion: 1 au= 149597870.700 km, c= 299792.458 km/s, 1 day= 86400.0 s 
Table cut-offs 1: Elevation (-90.0deg=NO ),Airmass (>38.000=NO), Daylight (NO )
Table cut-offs 2: Solar elongation (  0.0,180.0=NO ),Local Hour Angle( 0.0=NO )
Table cut-offs 3: RA/DEC angular rate (     0.0=NO )                           
**************************************************************************************************************************************
 Date__(UT)__HR:MN:SC.fff     R.A._(ICRF/J2K)_DEC Ang-diam Ob-lon Ob-lat Sl-lon Sl-lat   NP.ang   NP.dist            delta      deldot
**************************************************************************************************************************************
$$SOE
 1999-Nov-25 14:40:00.000      24.71409   8.72261 47.67192 343.91   3.54 337.05   3.46 337.3345     22.25 4.13546662763286  16.8719503
 1999-Nov-25 14:45:00.000      24.71381   8.72252 47.67153 346.93   3.54 340.07   3.46 337.3344     22.25 4.13550046385138  16.8733959
 1999-Nov-25 14:50:00.000      24.71354   8.72243 47.67114 349.95   3.54 343.09   3.46 337.3344     22.25 4.13553430296861  16.8748412
 1999-Nov-25 14:55:00.000      24.71326   8.72234 47.67075 352.98   3.54 346.12   3.46 337.3343     22.25 4.13556814498420  16.8762864
 1999-Nov-25 15:00:00.000      24.71298   8.72225 47.67036 356.00   3.54 349.14   3.46 337.3343     22.25 4.13560198989780  16.8777314
 1999-Nov-25 15:05:00.000      24.71271   8.72216 47.66997 359.02   3.54 352.16   3.46 337.3342     22.25 4.13563583770908  16.8791763
 1999-Nov-25 15:10:00.000      24.71243   8.72207 47.66958   2.04   3.54 355.18   3.46 337.3341     22.25 4.13566968841767  16.8806210
 1999-Nov-25 15:15:00.000      24.71215   8.72198 47.66919   5.07   3.54 358.21   3.46 337.3341     22.25 4.13570354202323  16.8820655
 1999-Nov-25 15:20:00.000      24.71188   8.72189 47.66880   8.09   3.54   1.23   3.46 337.3340     22.25 4.13573739852540  16.8835098
 1999-Nov-25 15:25:00.000      24.71160   8.72180 47.66841  11.11   3.54   4.25   3.46 337.3340     22.25 4.13577125792383  16.8849539
 1999-Nov-25 15:30:00.000      24.71132   8.72171 47.66802  14.13   3.54   7.27   3.46 337.3339     22.25 4.13580512021815  16.8863979
 1999-Nov-25 15:35:00.000      24.71105   8.72162 47.66763  17.16   3.54  10.29   3.46 337.3339     22.25 4.13583898540801  16.8878417
 1999-Nov-25 15:40:00.000      24.71077   8.72153 47.66724  20.18   3.54  13.32   3.46 337.3338     22.24 4.13587285349304  16.8892853
 1999-Nov-25 15:45:00.000      24.71049   8.72144 47.66685  23.20   3.54  16.34   3.46 337.3337     22.24 4.13590672447287  16.8907287
 1999-Nov-25 15:50:00.000      24.71022   8.72135 47.66646  26.23   3.54  19.36   3.46 337.3337     22.24 4.13594059834715  16.8921719
 1999-Nov-25 15:55:00.000      24.70994   8.72126 47.66607  29.25   3.54  22.38   3.46 337.3336     22.24 4.13597447511549  16.8936150
 1999-Nov-25 16:00:00.000      24.70967   8.72117 47.66568  32.27   3.54  25.41   3.46 337.3336     22.24 4.13600835477752  16.8950578
 1999-Nov-25 16:05:00.000      24.70939   8.72108 47.66529  35.29   3.54  28.43   3.46 337.3335     22.24 4.13604223733288  16.8965005
 1999-Nov-25 16:10:00.000      24.70911   8.72099 47.66490  38.32   3.54  31.45   3.46 337.3335     22.24 4.13607612278118  16.8979430
 1999-Nov-25 16:15:00.000      24.70884   8.72090 47.66450  41.34   3.54  34.47   3.46 337.3334     22.24 4.13611001112206  16.8993853
 1999-Nov-25 16:20:00.000      24.70856   8.72082 47.66411  44.36   3.54  37.49   3.46 337.3333     22.24 4.13614390235512  16.9008274
 1999-Nov-25 16:25:00.000      24.70829   8.72073 47.66372  47.39   3.54  40.52   3.46 337.3333     22.24 4.13617779647998  16.9022693
 1999-Nov-25 16:30:00.000      24.70801   8.72064 47.66333  50.41   3.54  43.54   3.46 337.3332     22.24 4.13621169349627  16.9037110
 1999-Nov-25 16:35:00.000      24.70773   8.72055 47.66294  53.43   3.54  46.56   3.46 337.3332     22.24 4.13624559340359  16.9051526
 1999-Nov-25 16:40:00.000      24.70746   8.72046 47.66255  56.45   3.54  49.58   3.46 337.3331     22.24 4.13627949620157  16.9065939
 1999-Nov-25 16:45:00.000      24.70718   8.72037 47.66216  59.48   3.54  52.61   3.46 337.3331     22.24 4.13631340188980  16.9080350
 1999-Nov-25 16:50:00.000      24.70691   8.72028 47.66177  62.50   3.54  55.63   3.46 337.3330     22.24 4.13634731046791  16.9094760
 1999-Nov-25 16:55:00.000      24.70663   8.72019 47.66138  65.52   3.54  58.65   3.46 337.3329     22.24 4.13638122193549  16.9109167
 1999-Nov-25 17:00:00.000      24.70635   8.72010 47.66099  68.55   3.54  61.67   3.46 337.3329     22.24 4.13641513629215  16.9123573
 1999-Nov-25 17:05:00.000      24.70608   8.72001 47.66060  71.57   3.54  64.69   3.46 337.3328     22.24 4.13644905353751  16.9137977
 1999-Nov-25 17:10:00.000      24.70580   8.71992 47.66021  74.59   3.54  67.72   3.46 337.3328     22.24 4.13648297367115  16.9152378
 1999-Nov-25 17:15:00.000      24.70553   8.71983 47.65982  77.61   3.54  70.74   3.46 337.3327     22.24 4.13651689669268  16.9166778
 1999-Nov-25 17:20:00.000      24.70525   8.71974 47.65943  80.64   3.54  73.76   3.46 337.3327     22.24 4.13655082260170  16.9181175
 1999-Nov-25 17:25:00.000      24.70497   8.71965 47.65903  83.66   3.54  76.78   3.46 337.3326     22.24 4.13658475139781  16.9195571
 1999-Nov-25 17:30:00.000      24.70470   8.71956 47.65864  86.68   3.54  79.81   3.46 337.3325     22.24 4.13661868308061  16.9209965
 1999-Nov-25 17:35:00.000      24.70442   8.71947 47.65825  89.71   3.54  82.83   3.46 337.3325     22.24 4.13665261764969  16.9224356
 1999-Nov-25 17:40:00.000      24.70415   8.71938 47.65786  92.73   3.54  85.85   3.46 337.3324     22.24 4.13668655510464  16.9238746
 1999-Nov-25 17:45:00.000      24.70387   8.71929 47.65747  95.75   3.54  88.87   3.46 337.3324     22.24 4.13672049544505  16.9253133
 1999-Nov-25 17:50:00.000      24.70360   8.71920 47.65708  98.77   3.54  91.89   3.46 337.3323     22.24 4.13675443867053  16.9267519
 1999-Nov-25 17:55:00.000      24.70332   8.71911 47.65669 101.80   3.54  94.92   3.46 337.3323     22.24 4.13678838478065  16.9281902
 1999-Nov-25 18:00:00.000      24.70305   8.71903 47.65630 104.82   3.54  97.94   3.46 337.3322     22.24 4.13682233377501  16.9296283
 1999-Nov-25 18:05:00.000      24.70277   8.71894 47.65591 107.84   3.54 100.96   3.46 337.3321     22.24 4.13685628565319  16.9310663
 1999-Nov-25 18:10:00.000      24.70250   8.71885 47.65551 110.86   3.54 103.98   3.46 337.3321     22.24 4.13689024041479  16.9325040
 1999-Nov-25 18:15:00.000      24.70222   8.71876 47.65512 113.89   3.54 107.00   3.46 337.3320     22.24 4.13692419805938  16.9339415
